BEIDOU-3 M14 (C33)      
1 43623U 18072B   25058.73352512  .00000031  00000+0  00000+0 0  9996
2 43623  56.2085  78.3605 0006198 319.5089  40.5108  1.86231070 43816
BEIDOU-3 M16 (C35)      
1 43647U 18078A   25057.82048439 -.00000039  00000+0  00000+0 0  9996
2 43647  54.5111 316.5980 0008202  20.0145 340.0764  1.86232219 43307
BEIDOU-3 M15 (C34)      
1 43648U 18078B   25057.94970664 -.00000039  00000+0  00000+0 0  9994
2 43648  54.5067 316.5955 0005108  25.7149 334.3694  1.86232060 43322
BEIDOU-3 G1 (C59)       
1 43683U 18085A   25058.85622681 -.00000280  00000+0  00000+0 0  9993
2 43683   2.8284 101.0620 0002689 356.1017 149.0018  1.00273703 23302
COSMOS 2529 (757)       
1 43687U 18086A   25057.82166295  .00000045  00000+0  00000+0 0  9996
2 43687  64.2956 208.6519 0007344 257.3969 102.4871  2.13101947 49152
BEIDOU-3 M17 (C36)      
1 43706U 18093A   25058.10340604  .00000027  00000+0  00000+0 0  9996
2 43706  54.1931 198.4140 0006602 292.3028  67.5747  1.86228168 42691
BEIDOU-3 M18 (C37)      
1 43707U 18093B   25058.50362774  .00000028  00000+0  00000+0 0  9994
2 43707  54.1938 198.3922 0005731 335.0386  24.8809  1.86229607 42694
GPS BIII-1  (PRN 04)    
1 43873U 18109A   25058.60629359  .00000041  00000+0  00000+0 0  9997
2 43873  55.4077 110.9303 0033194 196.7529 335.8761  2.00565327 45508
BEIDOU-3 IGSO-1 (C38)   
1 44204U 19023A   25059.15510590 -.00000188  00000+0  00000+0 0  9992
2 44204  58.0224  42.5484 0022544 227.1244  64.0129  1.00277506 21602
BEIDOU-2 G8 (C01)       
1 44231U 19027A   25058.85709561 -.00000250  00000+0  00000+0 0  9990
2 44231   1.4132  74.5096 0005784 248.5847 287.8714  1.00270479 21325
COSMOS 2534 (758)       
1 44299U 19030A   25058.81678677  .00000044  00000+0  00000+0 0  9997
2 44299  64.3690 208.5955 0009377 285.5426 252.0326  2.13102088 44812
BEIDOU-3 IGSO-2 (C39)   
1 44337U 19035A   25058.91053795 -.00000159  00000+0  00000+0 0  9992
2 44337  55.2000 163.0268 0036524 200.7704 239.0918  1.00259591 20940
GPS BIII-2  (PRN 18)    
1 44506U 19056A   25058.24171374 -.00000076  00000+0  00000+0 0  9991
2 44506  55.8095 349.9905 0048894 194.2387 337.7084  2.00560214 40544
BEIDOU-3 M24 (C46)      
1 44542U 19061A   25059.11103016  .00000031  00000+0  00000+0 0  9992
2 44542  54.4204 198.7168 0008197  15.7844 344.1884  1.86228923 36961
BEIDOU-3 M23 (C45)      
1 44543U 19061B   25057.58238795  .00000028  00000+0  00000+0 0  9991
2 44543  54.4194 198.7370 0004840  12.5058 315.2604  1.86229136 36931
BEIDOU-3 IGSO-3 (C40)   
1 44709U 19073A   25058.02452519 -.00000133  00000+0  00000+0 0  9998
2 44709  55.6124 286.0129 0041573 182.0653 178.0158  1.00279168 19691
BEIDOU-3 M22 (C44)      
1 44793U 19078A   25056.26993770 -.00000041  00000+0  00000+0 0  9997
2 44793  54.3597 316.5531 0007119  25.5239 334.5661  1.86231936 35768
BEIDOU-3 M21 (C43)      
1 44794U 19078B   25058.01172423 -.00000040  00000+0  00000+0 0  9996
2 44794  54.3316 316.4629 0005176  19.1770 340.9017  1.86227622 35803
COSMOS 2544 (759)       
1 44850U 19088A   25058.60623099  .00000061  00000+0  00000+0 0  9997
2 44850  65.3074  89.5997 0015576 259.3123 100.5919  2.13102022 40602
BEIDOU-3 M19 (C41)      
1 44864U 19090A   25058.31041041  .00000033  00000+0  00000+0 0  9993
2 44864  56.1400  78.5384 0020057 284.8907 108.2117  1.86231435 35383
BEIDOU-3 M20 (C42)      
1 44865U 19090B   25057.73755582  .00000034  00000+0  00000+0 0  9992
2 44865  56.1411  78.5914 0017588 296.2389 162.4771  1.86231410 35360
BEIDOU-3 G2 (C60)       
1 45344U 20017A   25058.89136964 -.00000141  00000+0  00000+0 0  9991
2 45344   2.6862  37.8803 0003051 298.2384 222.7481  1.00270079 18506
COSMOS 2545 (760)       
1 45358U 20018A   25057.86435302 -.00000041  00000+0  00000+0 0  9990
2 45358  64.6265 329.0801 0008772 256.1528 103.7952  2.13102420 38533
BEIDOU-3 G3 (C61)       
1 45807U 20040A   25058.94729550 -.00000356  00000+0  00000+0 0  9994
2 45807   1.3047  60.9167 0003104 314.2399 234.3573  1.00276356 17318
GPS BIII-3  (PRN 23)    
1 45854U 20041A   25058.66837328 -.00000019  00000+0  00000+0 0  9995
2 45854  56.3342  47.4143 0051086 199.6203 222.1635  2.00568196 34526
GALAXY 30 (WAAS/PRN 135)
1 46114U 20056C   25058.73222552  .00000035  00000+0  00000+0 0  9993
2 46114   0.0246 148.8350 0001745 195.1565 312.4165  1.00268984 16533
COSMOS 2547 (705K)      
1 46805U 20075A   25058.51941601  .00000044  00000+0  00000+0 0  9990
2 46805  64.5987 208.3232 0006238 231.6867 128.2213  2.13102924 33791
GPS BIII-4  (PRN 14)    
1 46826U 20078A   25059.12081672  .00000046  00000+0  00000+0 0  9999
2 46826  54.0941 230.0106 0054567 198.6653 161.1005  2.00558761 31998
GPS BIII-5  (PRN 11)    
1 48859U 21054A   25058.87295715 -.00000078  00000+0  00000+0 0  9994
2 48859  55.3399 351.4982 0018804 230.9592 138.1021  2.00570109 27248
QZS-1R (QZSS/PRN 196)   
1 49336U 21096A   25057.98844616 -.00000216  00000+0  00000+0 0  9996
2 49336  36.4701  86.6704 0748806 269.3660 291.8660  1.00291038 12249
GSAT0223 (GALILEO 27)   
1 49809U 21116A   25054.04481351 -.00000081  00000+0  00000+0 0  9991
2 49809  57.2804 354.6081 0002629 272.8768 266.8103  1.70475617 20011
GSAT0224 (GALILEO 28)   
1 49810U 21116B   25057.91332176 -.00000080  00000+0  00000+0 0  9991
2 49810  57.2805 354.5024 0002005 291.9057 214.5004  1.70475239 20099
COSMOS 2557 (706K)      
1 52984U 22075A   25058.21711168 -.00000044  00000+0  00000+0 0  9998
2 52984  64.5600 331.1742 0012432 285.3784  74.5277  2.13101703 20597
COSMOS 2559 (707K)      
1 54031U 22130A   25057.69151153 -.00000045  00000+0  00000+0 0  9999
2 54031  64.5324 331.3015 0005800 233.8010 126.1869  2.13101142 18552
COSMOS 2564 (761)       
1 54377U 22161A   25058.35016921  .00000045  00000+0  00000+0 0  9992
2 54377  64.7402 208.4795 0008489 207.7758 152.1436  2.13101948 17516
GPS BIII-6  (PRN 28)    
1 55268U 23009A   25055.80589204  .00000001  00000+0  00000+0 0  9992
2 55268  55.0899 167.2640 0000971  39.5557 308.9006  2.00545614 15662
BEIDOU-3 G4 (C62)       
1 56564U 23066A   25058.86022331 -.00000115  00000+0  00000+0 0  9994
2 56564   1.4905 290.1081 0001783 230.8293 106.7047  1.00271163  6635
NVS-01 (IRNSS-1J)       
1 56759U 23076A   25058.85414168 -.00000343  00000+0  00000+0 0  9996
2 56759   3.3440 260.0836 0007631  27.3010 307.4849  1.00275791  6354
COSMOS 2569 (703K)      
1 57517U 23114A   25057.89634245  .00000062  00000+0  00000+0 0  9992
2 57517  65.0374  88.6810 0012687 291.8941  68.0513  2.13104060 12138
BEIDOU-3 M28 (C50)      
1 58654U 23207A   25058.09311112  .00000031  00000+0  00000+0 0  9992
2 58654  55.3273  78.3841 0004803 289.2686  70.7474  1.86231971  7994
BEIDOU-3 M26 (C48)      
1 58655U 23207B   25057.89270867  .00000031  00000+0  00000+0 0  9991
2 58655  55.3291  78.3768 0005606 275.1856  84.8189  1.86231457  7974
GSAT0225 (GALILEO 29)   
1 59598U 24079A   25054.75233322  .00000009  00000+0  00000+0 0  9998
2 59598  54.8292 114.4657 0003035 233.9454 124.1018  1.70475095  5153
GSAT0227 (GALILEO 30)   
1 59600U 24079C   25058.45847213  .00000027  00000+0  00000+0 0  9993
2 59600  54.8266 114.3611 0000588 173.9328 186.1599  1.70474855  5278
GSAT0232 (GALILEO 32)   
1 61182U 24167A   25058.72103056  .00000058  00000+0  00000+0 0  9993
2 61182  55.3461 234.3289 0002269 176.8537 179.6252  1.70473771  2787
GSAT0226 (GALILEO 31)   
1 61183U 24167B   25058.55785933  .00000059  00000+0  00000+0 0  9996
2 61183  55.3452 234.3391 0002072 114.9870 253.9004  1.70473879  2765
BEIDOU-3 M25 (C47)      
1 61186U 24168B   25058.52668748 -.00000044  00000+0  00000+0 0  9996
2 61186  54.8840 318.6849 0004829 306.0206 237.4037  1.86229859  2943
BEIDOU-3 M27 (C49)      
1 61187U 24168C   25058.81228230 -.00000045  00000+0  00000+0 0  9998
2 61187  54.8792 318.6599 0002927   0.9006 148.8410  1.86230049   421
GPS BIII-7  (PRN 01)    
1 62339U 24242A   25058.37150359 -.00000078  00000+0  00000+0 0  9994
2 62339  54.9926 353.4068 0004628 316.0680 171.0304  2.00556165  1730
NVS-02 (IRNSS-1K)       
1 62850U 25020A   25058.71469095  .00006768 -10653-5  29356-3 0  9997
2 62850  20.8978  71.8743 7397515 197.8450 106.5097  2.17012828   658
